IRIDIUM 171             
1 43929U 19002H   25176.64420062  .00000013  00000+0 -24901-5 0  9999
2 43929  86.3996 142.8937 0002046  80.8838 279.2589 14.34217515337852
IRIDIUM 170             
1 43930U 19002J   25176.60658850  .00000588  00000+0  89321-4 0  9997
2 43930  86.6112 142.6622 0002774  80.7547 279.3984 14.72255377346793
IRIDIUM 167             
1 43931U 19002K   25176.35878409  .00000001  00000+0 -66774-5 0  9993
2 43931  86.3991 142.7657 0002129  73.8164 286.3266 14.34217513337819
IRIDIUM 181             
1 56726U 23068S   25177.03069903  .00000205  00000+0  54923-4 0  9990
2 56726  86.4522 205.5413 0001745  91.4761 268.6640 14.43309745111061
IRIDIUM 177             
1 56727U 23068T   25176.38609793  .00001117  00000+0  14346-3 0  9992
2 56727  86.1985 138.2382 0002389  83.2561 276.8932 14.80228329113584
IRIDIUM 174             
1 56728U 23068U   25176.66219465  .00000620  00000+0  94386-4 0  9998
2 56728  86.6120 142.7499 0003003  94.2419 265.9142 14.72253897113567
IRIDIUM 178             
1 56729U 23068V   25176.98361156  .00000332  00000+0  40183-4 0  9995
2 56729  86.6568 174.1628 0002713  91.9536 268.1997 14.80231791113671
IRIDIUM 179             
1 56730U 23068W   25176.09941350  .00000330  00000+0  40006-4 0  9991
2 56730  86.6812 182.4252 0002611  88.6806 271.4715 14.80232296113542
